[
    {
        "Altitude(m)": 607886.6911359918,
        "Argument of Periapsis(deg)": 0.0,
        "Eccentricity": 0.0,
        "Inclination(deg)": 60.0,
        "Latitude(deg)": 40.998442807655486,
        "Longitude(deg)": -155.02696728198794,
        "Mean Anomaly(deg)": 49.09089999999999,
        "RAAN(deg)": 275.0,
        "Satellite Name": "Test1 1213",
        "Satellite Number": 1213,
        "Semi-Major Axis(m)": 6980739.136638005,
        "Time(s)": 0
    },
    {
        "Altitude(m)": 607987.6049764997,
        "Argument of Periapsis(deg)": 0.00010418945913296404,
        "Eccentricity": 0.0,
        "Inclination(deg)": 60.0,
        "Latitude(deg)": 41.46353234190078,
        "Longitude(deg)": -154.52273854101773,
        "Mean Anomaly(deg)": 49.711006145461795,
        "RAAN(deg)": 274.9995799508602,
        "Satellite Name": "Test1 1213",
        "Satellite Number": 1213,
        "Semi-Major Axis(m)": 6980739.136638005,
        "Time(s)": 10
    }
]